IXPE                    
1 49954U 21121A   24093.58334491  .00008887  00000+0  67970-3 0  9995
2 49954   0.2285 234.3331 0009191 236.6924   9.0211 14.97120630  5596
